OBJECT_NAME,OBJECT_ID,EPOCH,MEAN_MOTION,ECCENTRICITY,INCLINATION,RA_OF_ASC_NODE,ARG_OF_PERICENTER,MEAN_ANOMALY,EPHEMERIS_TYPE,CLASSIFICATION_TYPE,NORAD_CAT_ID,ELEMENT_SET_NO,REV_AT_EPOCH,BSTAR,MEAN_MOTION_DOT,MEAN_MOTION_DDOT
STARLINK-2432,2021-018BF,2026-06-25T23:57:09.847296,15.31699320,.00012588,53.1608,95.3248,93.1993,266.9152,0,U,47840,999,29335,.42519687E-4,.954E-5,0
STARLINK-2433,2021-018BG,2026-06-25T23:30:16.829280,15.31708145,.0001433,53.1599,95.2577,115.4401,244.6749,0,U,47841,999,29335,.1395749E-4,.68E-6,0
STARLINK-2435,2021-018BJ,2026-06-26T02:37:31.933632,15.31697368,.00014654,53.1603,110.8847,99.0032,261.1135,0,U,47843,999,29317,-.3352121E-5,-.469E-5,0
STARLINK-2446,2021-018BK,2026-06-25T23:50:26.927808,15.32863480,.00008941,53.1595,101.9966,115.2197,244.8898,0,U,47844,999,29327,.12181207E-2,.39039E-3,0
STARLINK-2453,2021-018BL,2026-06-26T02:31:27.629760,15.31708052,.00011601,53.1596,114.2343,87.8502,272.2632,0,U,47845,999,29310,.7513293E-5,-.132E-5,0
SHIYAN-9 (SY-9),2021-019A,2026-06-25T16:42:48.056256,1.00270774,.00137954,16.5078,302.3350,26.7301,342.3488,0,U,47851,999,2422,0,-.23E-5,0
YAOGAN-31 04A,2021-020A,2026-06-26T07:14:02.355360,13.45447321,.0175776,63.4051,234.5721,0.4567,359.6589,0,U,47854,999,25969,-.19548477E-3,-.217E-5,0
YAOGAN-31 04B,2021-020C,2026-06-26T07:14:18.845664,13.45447332,.0175495,63.4047,235.3615,0.5429,359.5756,0,U,47856,999,25963,-.13227876E-3,-.176E-5,0
YAOGAN-31 04C,2021-020D,2026-06-26T07:14:23.220096,13.45447830,.01755776,63.4057,234.6542,0.3888,359.7244,0,U,47857,999,25968,-.16266654E-3,-.196E-5,0
STARLINK-2280,2021-021B,2026-06-26T02:17:58.559424,15.31707254,.00011027,53.1589,113.9701,86.4957,273.6171,0,U,47861,999,29300,.7711348E-4,.2029E-4,0
STARLINK-2291,2021-021C,2026-06-26T08:00:01.999872,15.65440526,.00012702,53.1562,100.3292,106.0649,309.6071,0,U,47862,999,589,.2428859E-2,.254579E-2,0
STARLINK-2326,2021-021L,2026-06-26T03:53:27.924864,15.31704881,.0001139,53.1573,136.3258,84.4084,275.7048,0,U,47870,999,29258,.52656639E-4,.1269E-4,0
STARLINK-2329,2021-021P,2026-06-25T13:05:27.362112,15.31708318,.0001468,53.1593,113.6384,95.6987,264.4181,0,U,47873,999,29294,.47743E-4,.1117E-4,0
STARLINK-2330,2021-021Q,2026-06-26T00:19:34.827456,15.38525239,.00042894,53.1431,70.7750,93.3672,266.7823,0,U,47874,999,29358,.11239163E-2,.43233E-3,0
STARLINK-2336,2021-021V,2026-06-26T08:00:01.999872,15.67929889,.00015407,53.1522,122.1203,87.4919,251.5219,0,U,47879,999,588,.91873541E-2,.1144108E-1,0
STARLINK-2342,2021-021Z,2026-06-26T06:29:12.002784,15.84097620,.00027881,53.1534,102.4440,192.4741,167.6214,0,U,47883,999,29334,.90229652E-3,.211521E-2,0
STARLINK-2343,2021-021AA,2026-06-26T04:00:11.164032,15.31702580,.00011871,53.1571,136.3386,84.1975,275.9162,0,U,47884,999,29267,.30885404E-4,.593E-5,0
STARLINK-2346,2021-021AD,2026-06-26T05:54:16.284384,15.31702432,.00012883,53.1570,135.9316,99.9152,260.1995,0,U,47887,999,29269,.43270537E-4,.978E-5,0
STARLINK-2354,2021-021AL,2026-06-26T02:46:48.316800,15.34787882,.00015278,53.1499,123.1808,86.1684,273.9493,0,U,47894,999,29280,.12581552E-2,.42906E-3,0
STARLINK-2355,2021-021AM,2026-06-26T02:28:30.011232,15.31686641,.00010651,53.1589,123.7739,100.3397,259.7724,0,U,47895,999,29283,.5332302E-3,.16211E-3,0
STARLINK-2356,2021-021AN,2026-06-26T03:19:55.242912,15.31689333,.00012225,53.1591,136.4155,100.7749,259.3390,0,U,47896,999,29263,-.10071408E-4,-.677E-5,0
STARLINK-2358,2021-021AQ,2026-06-26T02:08:23.615808,15.31695385,.0001355,53.1579,123.7721,107.2488,252.8662,0,U,47898,999,29280,.13745562E-3,.3902E-4,0
STARLINK-2361,2021-021AT,2026-06-26T01:49:12.444672,15.39658383,.00048467,53.1552,108.4712,57.3765,302.7707,0,U,47901,999,29306,.86428152E-3,.3438E-3,0
STARLINK-2363,2021-021AV,2026-06-26T08:00:01.999872,16.02837922,.0007331,53.1469,70.1918,238.3375,112.8774,0,U,47903,999,603,.90011491E-3,.556159E-2,.15298526E-3
STARLINK-2364,2021-021AW,2026-06-26T02:57:39.579264,15.31701175,.00012834,53.1587,110.7830,94.3186,265.7962,0,U,47904,999,29302,.40851131E-4,.903E-5,0
STARLINK-2367,2021-021AZ,2026-06-26T04:33:46.109664,15.31692521,.00015184,53.1607,136.3344,106.4798,253.6370,0,U,47907,999,29264,-.30903722E-4,-.1324E-4,0
STARLINK-2370,2021-021BC,2026-06-26T03:28:55.350048,15.31699325,.00012181,53.1586,123.5483,90.8826,269.2315,0,U,47910,999,29287,.20727524E-4,.278E-5,0
STARLINK-2371,2021-021BD,2026-06-26T04:27:01.604736,15.31697908,.00011685,53.1576,136.2223,98.4283,261.6851,0,U,47911,999,29253,-.43004128E-4,-.1699E-4,0
STARLINK-2378,2021-021BJ,2026-06-25T23:56:28.112640,15.31714240,.00015664,53.1586,111.5330,88.2765,271.8416,0,U,47916,999,29300,.12614432E-3,.3553E-4,0
STARLINK-2405,2021-021BM,2026-06-26T03:46:44.699520,15.31709533,.00009666,53.1557,136.3220,81.7184,278.3927,0,U,47919,999,29266,.86863649E-4,.2332E-4,0
