STARLINK-2432           
1 47840U 21018BF  26176.99803064  .00000954  00000+0  42520-4 0  9990
2 47840  53.1608  95.3248 0001258  93.1993 266.9152 15.31699320293351
STARLINK-2433           
1 47841U 21018BG  26176.97936145  .00000068  00000+0  13957-4 0  9994
2 47841  53.1599  95.2577 0001433 115.4401 244.6749 15.31708145293353
STARLINK-2435           
1 47843U 21018BJ  26177.10939738 -.00000469  00000+0 -33521-5 0  9990
2 47843  53.1603 110.8847 0001465  99.0032 261.1135 15.31697368293174
STARLINK-2446           
1 47844U 21018BK  26176.99336722  .00039039  00000+0  12181-2 0  9990
2 47844  53.1595 101.9966 0000894 115.2197 244.8898 15.32863480293272
STARLINK-2453           
1 47845U 21018BL  26177.10518090 -.00000132  00000+0  75133-5 0  9997
2 47845  53.1596 114.2343 0001160  87.8502 272.2632 15.31708052293106
SHIYAN-9 (SY-9)         
1 47851U 21019A   26176.69638954 -.00000230  00000+0  00000+0 0  9994
2 47851  16.5078 302.3350 0013795  26.7301 342.3488  1.00270774 24224
YAOGAN-31 04A           
1 47854U 21020A   26177.30141615 -.00000217  00000+0 -19548-3 0  9998
2 47854  63.4051 234.5721 0175776   0.4567 359.6589 13.45447321259698
YAOGAN-31 04B           
1 47856U 21020C   26177.30160701 -.00000176  00000+0 -13228-3 0  9990
2 47856  63.4047 235.3615 0175495   0.5429 359.5756 13.45447332259633
YAOGAN-31 04C           
1 47857U 21020D   26177.30165764 -.00000196  00000+0 -16267-3 0  9993
2 47857  63.4057 234.6542 0175577   0.3888 359.7244 13.45447830259686
STARLINK-2280           
1 47861U 21021B   26177.09581666  .00002029  00000+0  77113-4 0  9991
2 47861  53.1589 113.9701 0001102  86.4957 273.6171 15.31707254293000
STARLINK-2291           
1 47862U 21021C   26177.33335648  .00254579  00000+0  24289-2 0  9999
2 47862  53.1562 100.3292 0001270 106.0649 309.6071 15.65440526  5890
STARLINK-2326           
1 47870U 21021L   26177.16212876  .00001269  00000+0  52657-4 0  9994
2 47870  53.1573 136.3258 0001139  84.4084 275.7048 15.31704881292589
STARLINK-2329           
1 47873U 21021P   26176.54545558  .00001117  00000+0  47743-4 0  9996
2 47873  53.1593 113.6384 0001468  95.6987 264.4181 15.31708318292945
STARLINK-2330           
1 47874U 21021Q   26177.01359754  .00043233  00000+0  11239-2 0  9995
2 47874  53.1431  70.7750 0004289  93.3672 266.7823 15.38525239293582
STARLINK-2336           
1 47879U 21021V   26177.33335648  .01144108  00000+0  91874-2 0  9998
2 47879  53.1522 122.1203 0001540  87.4919 251.5219 15.67929889  5884
STARLINK-2342           
1 47883U 21021Z   26177.27027781  .00211521  00000+0  90230-3 0  9991
2 47883  53.1534 102.4440 0002788 192.4741 167.6214 15.84097620293341
STARLINK-2343           
1 47884U 21021AA  26177.16679588  .00000593  00000+0  30885-4 0  9994
2 47884  53.1571 136.3386 0001187  84.1975 275.9162 15.31702580292676
STARLINK-2346           
1 47887U 21021AD  26177.24602181  .00000978  00000+0  43271-4 0  9991
2 47887  53.1570 135.9316 0001288  99.9152 260.1995 15.31702432292697
STARLINK-2354           
1 47894U 21021AL  26177.11583700  .00042906  00000+0  12582-2 0  9996
2 47894  53.1499 123.1808 0001527  86.1684 273.9493 15.34787882292807
STARLINK-2355           
1 47895U 21021AM  26177.10312513  .00016211  00000+0  53323-3 0  9997
2 47895  53.1589 123.7739 0001065 100.3397 259.7724 15.31686641292834
STARLINK-2356           
1 47896U 21021AN  26177.13883383 -.00000677  00000+0 -10071-4 0  9994
2 47896  53.1591 136.4155 0001222 100.7749 259.3390 15.31689333292635
STARLINK-2358           
1 47898U 21021AQ  26177.08916222  .00003902  00000+0  13746-3 0  9992
2 47898  53.1579 123.7721 0001355 107.2488 252.8662 15.31695385292803
STARLINK-2361           
1 47901U 21021AT  26177.07583848  .00034380  00000+0  86428-3 0  9991
2 47901  53.1552 108.4712 0004846  57.3765 302.7707 15.39658383293069
STARLINK-2363           
1 47903U 21021AV  26177.33335648  .00556159  15299-3  90011-3 0  9991
2 47903  53.1469  70.1918 0007331 238.3375 112.8774 16.02837922  6033
STARLINK-2364           
1 47904U 21021AW  26177.12337476  .00000903  00000+0  40851-4 0  9999
2 47904  53.1587 110.7830 0001283  94.3186 265.7962 15.31701175293024
STARLINK-2367           
1 47907U 21021AZ  26177.19011701 -.00001324  00000+0 -30904-4 0  9997
2 47907  53.1607 136.3344 0001518 106.4798 253.6370 15.31692521292649
STARLINK-2370           
1 47910U 21021BC  26177.14508507  .00000278  00000+0  20728-4 0  9999
2 47910  53.1586 123.5483 0001218  90.8826 269.2315 15.31699325292872
STARLINK-2371           
1 47911U 21021BD  26177.18543524 -.00001699  00000+0 -43004-4 0  9994
2 47911  53.1576 136.2223 0001168  98.4283 261.6851 15.31697908292539
STARLINK-2378           
1 47916U 21021BJ  26176.99754760  .00003553  00000+0  12614-3 0  9994
2 47916  53.1586 111.5330 0001566  88.2765 271.8416 15.31714240293006
STARLINK-2405           
1 47919U 21021BM  26177.15746180  .00002332  00000+0  86864-4 0  9996
2 47919  53.1557 136.3220 0000966  81.7184 278.3927 15.31709533292665
